GOES 1 (SMS-C) [-]      
1 08366U 75100A   23005.41310067 -.00000158  00000+0  00000+0 0  9991
2 08366   7.7858 293.1922 0002482 308.4086 282.7938  1.00237873172441
GOES 2 [-]              
1 10061U 77048A   23005.20049973 -.00000281  00000+0  00000+0 0  9998
2 10061   9.3925 304.9818 0012312  24.2013 355.7972  0.99401554 33766
GOES 3 [-]              
1 10953U 78062A   23005.16746420 -.00000209  00000+0  00000+0 0  9991
2 10953   9.7377 309.6198 0000640 156.5287  41.1722  0.99364996116025
GOES 4 [-]              
1 11964U 80074A   23005.23388392 -.00000223  00000+0  00000+0 0  9994
2 11964  10.7126 313.4494 0032051  77.3681 113.3604  0.99231536114946
GOES 5 [-]              
1 12472U 81049A   23005.30231365 -.00000273  00000+0  00000+0 0  9992
2 12472  11.6091 324.9643 0000926 260.7923 280.4721  1.00260076110225
GOES 6 [-]              
1 14050U 83041A   23005.43729799 -.00000237  00000+0  00000+0 0  9997
2 14050  12.1977 330.3133 0002720 160.4918  52.7831  1.00246537203396
GOES 7 [-]              
1 17561U 87022A   23005.25915668 -.00000235  00000+0  00000+0 0  9990
2 17561  14.0692 346.9146 0004140  56.2745 130.9793  0.99907527114382
GOES 8 [-]              
1 23051U 94022A   23005.54706771 -.00000014  00000+0  00000+0 0  9999
2 23051  13.3483  22.7671 0004252  19.7850 346.7748  0.98902642111689
GOES 9 [-]              
1 23581U 95025A   23005.51728281 -.00000058  00000+0  00000+0 0  9996
2 23581  12.8439  23.1717 0004478 120.9294  63.7044  0.98798435100322
GOES 10 [-]             
1 24786U 97019A   23005.27981986 -.00000123  00000+0  00000+0 0  9998
2 24786  11.6485  29.4304 0027853 207.7616 154.2599  0.99126992 93598
GOES 11 [-]             
1 26352U 00022A   23005.38476653 -.00000201  00000+0  00000+0 0  9996
2 26352   9.1115  57.7061 0002538 216.9023 321.5475  0.99045183 40004
GOES 12 [-]             
1 26871U 01031A   23005.38119275 -.00000248  00000+0  00000+0 0  9998
2 26871   9.8798  46.8507 0004960 305.5753 224.3483  0.99139646 78282
EWS-G1 (GOES 13) [+]    
1 29155U 06018A   23005.54201215  .00000045  00000+0  00000+0 0  9994
2 29155   1.0970  93.0621 0006344 160.2616 108.4595  1.00278483 30751
GOES 14 [B]             
1 35491U 09033A   23005.54077238 -.00000080  00000+0  00000+0 0  9990
2 35491   0.1056 244.6729 0017545 343.3786 327.1578  1.00270071 49538
GOES 15 [B]             
1 36411U 10008A   23005.55188391  .00000067  00000+0  00000+0 0  9995
2 36411   0.0602 290.9453 0003234 268.2354 336.4964  1.00264616 47045
GOES 16 [+]             
1 41866U 16071A   23005.42550368 -.00000235  00000+0  00000+0 0  9992
2 41866   0.0808 250.6210 0000980  59.5833 232.5319  1.00271205 22499
GOES 17 [+]             
1 43226U 18022A   23005.55188391  .00000111  00000+0  00000+0 0  9991
2 43226   0.0333 167.0401 0000538 126.8696 232.2955  1.00271755 17814
GOES 18 [+]             
1 51850U 22021A   23001.70064306  .00000106  00000+0  00000+0 0  9993
2 51850   0.0076 257.1302 0001091  13.6453 305.6035  1.00273140  3145
